COSMOS 2433 (720)       
1 32275U 07052A   24106.33830179 -.00000077  00000+0  00000+0 0  9993
2 32275  65.9554 342.4797 0001258 293.1664  66.8684  2.13104074128201
COSMOS 2432 (719)       
1 32276U 07052B   24105.89530861 -.00000078  00000+0  00000+0 0  9990
2 32276  65.9703 342.6073 0010538 337.0275 349.5978  2.13103299128186
COSMOS 2434 (721)       
1 32393U 07065A   24106.41882892 -.00000018  00000+0  00000+0 0  9991
2 32393  64.3224 218.7007 0002814  79.8464 233.9863  2.13103171126902
COSMOS 2436 (723)       
1 32395U 07065C   24106.30806503 -.00000017  00000+0  00000+0 0  9995
2 32395  64.3310 218.7683 0016264   2.5626   1.5478  2.13102922126844
COSMOS 2456 (730)       
1 36111U 09070A   24106.50686434  .00000048  00000+0  00000+0 0  9997
2 36111  64.5861  98.1067 0006378 304.9691 232.1082  2.13099122111573
COSMOS 2457 (733)       
1 36112U 09070B   24105.88777494  .00000042  00000+0  00000+0 0  9999
2 36112  64.5703  97.9882 0003100 202.5710 352.1181  2.13101279111565
COSMOS 2460 (732)       
1 36402U 10007C   24106.35197363 -.00000075  00000+0  00000+0 0  9994
2 36402  65.8133 341.1563 0002400  36.2519 145.6707  2.13106275109836
COSMOS 2476 (744)       
1 37867U 11064A   24104.80295924  .00000034  00000+0  00000+0 0  9998
2 37867  64.8602  99.7763 0024362 241.8249 339.3627  2.13101687 96835
COSMOS 2477 (745)       
1 37868U 11064B   24104.34889339  .00000031  00000+0  00000+0 0  9994
2 37868  64.8672  99.8638 0021580 243.3737 167.2132  2.13101528 96825
COSMOS 2475 (743)       
1 37869U 11064C   24105.27706062  .00000038  00000+0  00000+0 0  9996
2 37869  64.8747  99.8464 0026825 256.7094 104.6090  2.13101851 96857
COSMOS 2485 (747)       
1 39155U 13019A   24104.92576403  .00000036  00000+0  00000+0 0  9991
2 39155  65.0186 100.3429 0024537 238.0273 121.7386  2.13101833 85357
COSMOS 2492 (754)       
1 39620U 14012A   24106.28907632 -.00000075  00000+0  00000+0 0  9999
2 39620  65.6953 340.7445 0013258 330.7307  29.2431  2.13103216 78347
COSMOS 2500 (755)       
1 40001U 14032A   24106.46931458 -.00000074  00000+0  00000+0 0  9998
2 40001  65.6330 340.5485 0004399 194.6306 165.4045  2.13106002 76567
COSMOS 2501 (702K)      
1 40315U 14075A   24105.78322271 -.00000011  00000+0  00000+0 0  9995
2 40315  63.6244 217.8799 0019502 206.7595 153.1425  2.13101438 72940
COSMOS 2514 (751)       
1 41330U 16008A   24105.29614430 -.00000076  00000+0  00000+0 0  9999
2 41330  65.4286 340.1135 0008162 209.3348 150.6670  2.13102677 63707
COSMOS 2522 (752)       
1 42939U 17055A   24106.07529565 -.00000014  00000+0  00000+0 0  9991
2 42939  64.0852 218.9240 0007564 234.7049 125.2252  2.13101837 51079
COSMOS 2527 (756)       
1 43508U 18053A   24106.50348055  .00000052  00000+0  00000+0 0  9995
2 43508  65.1797 100.4288 0009796 245.5705 114.3354  2.13102418 45382
COSMOS 2529 (757)       
1 43687U 18086A   24106.13335001 -.00000014  00000+0  00000+0 0  9994
2 43687  64.3006 219.4178 0008766 259.7841 100.1171  2.13102064 42381
COSMOS 2534 (758)       
1 44299U 19030A   24106.42951076 -.00000018  00000+0  00000+0 0  9996
2 44299  64.3739 219.3550 0010905 283.8835  77.4262  2.13102230 38035
COSMOS 2544 (759)       
1 44850U 19088A   24104.57039952  .00000033  00000+0  00000+0 0  9992
2 44850  65.1653 100.3320 0015435 262.1615  97.6673  2.13102160 33784
COSMOS 2545 (760)       
1 45358U 20018A   24105.23672713 -.00000078  00000+0  00000+0 0  9993
2 45358  64.7685 340.1786 0007297 254.0347 105.9320  2.13102584 31743
COSMOS 2547 (705K)      
1 46805U 20075A   24106.36287396 -.00000017  00000+0  00000+0 0  9991
2 46805  64.6023 218.9802 0006943 237.1332 122.8004  2.13103141 27012
COSMOS 2557 (706K)      
1 52984U 22075A   24105.11956623 -.00000081  00000+0  00000+0 0  9997
2 52984  64.6933 342.3193 0011494 287.6760  72.2459  2.13101849 13788
COSMOS 2559 (707K)      
1 54031U 22130A   24106.47004136 -.00000079  00000+0  00000+0 0  9994
2 54031  64.6645 342.3919 0004853 226.2876 133.7192  2.13101237 11794
COSMOS 2564 (761)       
1 54377U 22161A   24105.72296820 -.00000008  00000+0  00000+0 0  9993
2 54377  64.7434 219.0949 0009127 215.1124 144.8283  2.13101991 10722
COSMOS 2569 (703K)      
1 57517U 23114A   24105.27139734  .00000038  00000+0  00000+0 0  9993
2 57517  64.8916  99.4809 0012949 294.9684  64.9011  2.13104049  5344
